OBJECT C                
1 57582U 23117C   25279.21217175  .00018467  00000+0  66738-3 0  9990
2 57582  97.4360 353.7651 0009422  67.7910 292.4328 15.28470710119618
